BRISAT                  
1 41591U 16039A   20212.52179693 -.00000212  00000-0  00000+0 0  9993
2 41591   0.0143  67.6398 0002187  64.1871 155.1284  1.00263548 15106
ECHOSTAR 18             
1 41592U 16039B   20212.21357708 -.00000295  00000-0  00000+0 0  9996
2 41592   0.0185  81.1507 0001740  43.0994 199.5650  1.00272160 15099
MUOS-5                  
1 41622U 16041A   20212.41631701 -.00000151  00000-0  00000+0 0  9994
2 41622   7.1579 306.9774 0205189 218.0340 188.3625  1.00271212 15538
TIANTONG-1 1            
1 41725U 16048A   20212.26787806 -.00000327  00000-0  00000-0 0  9992
2 41725   2.9283 334.9700 0000887 107.2011  64.0170  1.00270825 14723
JCSAT-16                
1 41729U 16050A   20212.06879126 -.00000246  00000-0  00000-0 0  9994
2 41729   0.1430  95.4548 0002322 114.7368 213.1589  1.00270585 14526
USA 270                 
1 41744U 16052A   20206.17635333  .00000035  00000-0  00000+0 0  9992
2 41744   0.6420  96.3133 0000464 122.8487 206.0076  1.00341887  6543
USA 271                 
1 41745U 14052B   20212.42305259 -.00000332  00000-0  00000+0 0  9998
2 41745   0.3222  98.5805 0000200  99.6800  39.5913  1.00118296  6409
INTELSAT 36 (IS-36)     
1 41747U 16053A   20211.99263431 -.00000037  00000-0  00000-0 0  9992
2 41747   0.0092  40.2587 0002017 335.8845 357.7746  1.00271174 14421
INTELSAT 33E (IS-33E)   
1 41748U 16053B   20212.06268476  .00000036  00000-0  00000-0 0  9994
2 41748   0.0095  59.0358 0002301  70.4325 261.2227  1.00271969 14706
INSAT-3DR               
1 41752U 16054A   20211.99376838 -.00000090  00000-0  00000-0 0  9994
2 41752   0.0752  96.6462 0010284 168.2096 114.9760  1.00271306 14266
GSAT-18                 
1 41793U 16060A   20211.99376838 -.00000090  00000-0  00000-0 0  9996
2 41793   0.0455 103.3521 0003292  14.5471 261.9267  1.00271521 13997
SKY MUSTER 2            
1 41794U 16060B   20211.79253455 -.00000257  00000-0  00000-0 0  9999
2 41794   0.0172  74.5547 0001911  57.4178 246.0343  1.00269425 13974
HIMAWARI-9              
1 41836U 16064A   20211.93523309 -.00000288  00000-0  00000-0 0  9998
2 41836   0.0152 317.0896 0000603 152.6575 315.7151  1.00271646 13640
SHIJIAN-17 (SJ-17)      
1 41838U 16065A   20212.56694299 -.00000096  00000-0  00000-0 0  9995
2 41838   0.3409  93.8649 0003795  27.1494 194.9528  1.00270794 13677
GOES 16                 
1 41866U 16071A   20212.44483765 -.00000262  00000-0  00000-0 0  9999
2 41866   0.0434 134.7106 0000707  12.0967 246.6631  1.00271577 13573
TIANLIAN 1-04           
1 41869U 16072A   20212.09075317 -.00000120  00000-0  00000-0 0  9997
2 41869   0.1219 283.4391 0018487 174.8907 319.5555  1.00271254 13770
WGS F8 (USA 272)        
1 41879U 16075A   20212.53508927 -.00000217  00000-0  00000-0 0  9995
2 41879   0.0154  56.7936 0000125  89.5617 144.6900  1.00270624 13304
FENGYUN 4A              
1 41882U 16077A   20212.63640168 -.00000345  00000-0  00000-0 0  9998
2 41882   0.0503  69.3953 0003972  69.1689 143.9053  1.00273939 13449
ECHOSTAR 19             
1 41893U 16079A   20211.60343852 -.00000151  00000-0  00000+0 0  9992
2 41893   0.0020 148.8889 0001629 329.5345 309.4094  1.00271386 13195
JCSAT-15                
1 41903U 16082A   20212.57769071 -.00000365  00000-0  00000-0 0  9998
2 41903   0.0123 316.0394 0001632 168.8828 141.7590  1.00271038 13221
STAR ONE D1             
1 41904U 16082B   20212.43965135 -.00000225  00000-0  00000+0 0  9997
2 41904   0.0005 251.1520 0002406 245.5344 246.1048  1.00273090 13258
TJS-2                   
1 41911U 17001A   20212.07219347 -.00000356  00000-0  00000-0 0  9990
2 41911   0.2077  97.2309 0006560 293.4981  50.9109  1.00272739 13185
SBIRS GEO-4 (USA 273)   
1 41937U 17004A   20212.29272338  .00000122  00000-0  00000+0 0  9993
2 41937   3.7099 312.0037 0002706 173.6826 128.6604  1.00272142 13064
HISPASAT 36W-1          
1 41942U 17006A   20211.97178493 -.00000258  00000-0  00000+0 0  9993
2 41942   0.0193  84.2521 0001219  55.6909 121.9725  1.00269491 12983
TELKOM 3S               
1 41944U 17007A   20212.00249198 -.00000376  00000-0  00000-0 0  9994
2 41944   0.0171  85.4482 0001725  42.8765 298.6544  1.00270508 12599
INTELSAT 32E (IS-32E)   
1 41945U 17007B   20212.04218431 -.00000282  00000-0  00000+0 0  9990
2 41945   0.0178  73.3390 0000479 337.0142 229.7720  1.00269336 12705
ECHOSTAR 23             
1 42070U 17014A   20212.44834104 -.00000284  00000-0  00000-0 0  9996
2 42070   0.0174  73.4937 0002057  54.5175 274.0108  1.00270091 12398
WGS F9 (USA 275)        
1 42075U 17016A   20212.03303806  .00000061  00000-0  00000+0 0  9999
2 42075   0.0104  86.4428 0000374  26.5925 263.7765  1.00268778 12390
SES-10                  
1 42432U 17017A   20212.44905973 -.00000286  00000-0  00000+0 0  9995
2 42432   0.0123  62.6326 0002735  62.9375 277.7093  1.00269808 12201
CHINASAT 16 (SJ-13)     
1 42662U 17018A   20212.58952679 -.00000366  00000-0  00000+0 0  9990
2 42662   0.0517  89.1970 0004874 122.2944  59.8666  1.00267127 12207
KOREASAT 7              
1 42691U 17023A   20212.07385095 -.00000375  00000-0  00000-0 0  9995
2 42691   0.0157  57.8642 0002108 100.8197 291.9531  1.00269863 11834
SGDC                    
1 42692U 17023B   20212.35121564 -.00000263  00000-0  00000-0 0  9992
2 42692   0.0090  33.5950 0003194  93.9946 232.4244  1.00271339 11881
GSAT-9                  
1 42695U 17024A   20212.07018704 -.00000299  00000-0  00000+0 0  9994
2 42695   0.0796 269.9829 0002320 211.3157 309.4584  1.00271408 11897
INMARSAT 5-F4           
1 42698U 17025A   20212.06198686  .00000062  00000-0  00000+0 0  9992
2 42698   0.0271  77.1247 0000490 120.6781 189.1484  1.00271960 11729
SES-15                  
1 42709U 17026A   20212.50558477  .00000046  00000-0  00000-0 0  9996
2 42709   0.0096  57.6402 0001355  54.0636 249.7611  1.00275128 12617
QZS-2  (MICHIBIKI-2)    
1 42738U 17028A   20210.48248839 -.00000163  00000-0  00000-0 0  9994
2 42738  42.9226 273.8549 0754799 269.5541  78.1501  1.00276681 11580
VIASAT-2                
1 42740U 17029A   20212.03677567 -.00000278  00000-0  00000+0 0  9991
2 42740   0.0176 303.5175 0000370 200.4528 107.4792  1.00266669 11635
EUTELSAT 172B           
1 42741U 17029B   20212.53732615 -.00000020  00000-0  00000-0 0  9999
2 42741   0.0264  84.5889 0000355  32.2687 197.1963  1.00269753 12186
GSAT-19                 
1 42747U 17031A   20212.06024214  .00000112  00000-0  00000-0 0  9996
2 42747   0.0627 267.3015 0007754 190.2532 280.1246  1.00271699 11594
ECHOSTAR 21             
1 42749U 17032A   20211.98103192  .00000059  00000-0  00000+0 0  9991
2 42749   5.4149 312.4547 0002169 167.4829 191.5433  1.00271813 11586
CHINASAT 9A (ZX 9A)     
1 42763U 17035A   20212.63912275 -.00000327  00000-0  00000-0 0  9993
2 42763   0.0375 238.6465 0002070 237.5095 164.0852  1.00271006 12111
BULGARIASAT-1           
1 42801U 17038A   20212.09493928 -.00000002  00000-0  00000-0 0  9998
2 42801   0.0184  70.0208 0002446  58.0637 216.1749  1.00272961 11282
HELLAS-SAT 3            
1 42814U 17040A   20212.07827080  .00000139  00000-0  00000+0 0  9992
2 42814   0.0653  28.1783 0003701  50.8954 296.2646  1.00268474 11320
GSAT-17                 
1 42815U 17040B   20212.06940192 -.00000271  00000-0  00000-0 0  9991
2 42815   0.0733 271.1911 0001619   5.2585 150.2381  1.00270910 11247
INTELSAT 35E (IS-35E)   
1 42818U 17041A   20212.04384178 -.00000251  00000-0  00000-0 0  9997
2 42818   0.0501 236.8413 0001983 242.1282 170.4515  1.00271178 11338
COSMOS 2520             
1 42907U 17046A   20212.05971873  .00000124  00000-0  00000+0 0  9993
2 42907   0.0250 100.4433 0000392 110.5476 163.6529  1.00270682 10856
TDRS 13                 
1 42915U 17047A   20212.30027175 -.00000106  00000-0  00000-0 0  9990
2 42915   5.5092 330.2319 0016870 106.4217 328.3644  1.00271216 10818
QZS-3 (MICHIBIKI-3)     
1 42917U 17048A   20211.78895786 -.00000361  00000-0  00000-0 0  9998
2 42917   0.0711 235.4569 0000953 244.2272 239.2021  1.00275516 10713
AMAZONAS 5              
1 42934U 17053A   20212.45201932 -.00000296  00000-0  00000-0 0  9999
2 42934   0.0342 320.2692 0001777 164.6586 285.3216  1.00274728 10554
ASIASAT 9               
1 42942U 17057A   20211.93156917 -.00000373  00000-0  00000-0 0  9992
2 42942   0.0085 105.9135 0002405   7.3099 292.2441  1.00269443 10407
INTELSAT 37E (IS-37E)   
1 42950U 17059A   20212.04715675 -.00000154  00000-0  00000-0 0  9995
2 42950   0.0180  91.6247 0003011  44.9912 170.4841  1.00271388 10505
BSAT-4A                 
1 42951U 17059B   20212.57769319 -.00000364  00000-0  00000-0 0  9991
2 42951   0.0379  13.1788 0003267  84.7532 168.5252  1.00271182 10278
QZS-4 (MICHIBIKI-4)     
1 42965U 17062A   20211.59963333 -.00000346  00000-0  00000-0 0  9993
2 42965  40.8270  11.0416 0746178 268.7572  20.6542  1.00295156 10270
SES-11 (ECHOSTAR 105)   
1 42967U 17063A   20212.50629818 -.00000103  00000-0  00000-0 0  9996
2 42967   0.0245  86.1802 0002641  46.7305 252.9987  1.00271188 10274
KOREASAT 5A             
1 42984U 17067A   20212.07332753 -.00000371  00000-0  00000-0 0  9997
2 42984   0.0199 104.5177 0002109  23.0268 320.1474  1.00270532  9994
ALCOMSAT 1              
1 43039U 17078A   20212.04584821 -.00000199  00000-0  00000-0 0  9991
2 43039   0.0462 214.6126 0001878 264.1168 181.1120  1.00271095  9746
SBIRS GEO-3 (USA 282)   
1 43162U 18009A   20211.71114024 -.00000298  00000-0  00000-0 0  9990
2 43162   4.8748 317.1061 0002653 169.2792 216.4189  1.00270844  9309
AL YAH 3                
1 43174U 18012A   20212.04672057 -.00000169  00000-0  00000-0 0  9996
2 43174   0.0144 319.6012 0002208 169.1184 176.1189  1.00270211  9303
SES-14                  
1 43175U 18012B   20212.04131194 -.00000291  00000-0  00000-0 0  9995
2 43175   0.0170 324.8498 0001210 153.9311 156.7003  1.00271292  9527
